CUTE-1 (CO-55)          
1 27844U 03031E   26063.50570256  .00000469  00000+0  22228-3 0  9996
2 27844  98.6779  73.3688 0010519 125.9821 234.2335 14.24261171176771
CUBESAT XI-IV (CO-57)   
1 27848U 03031J   26062.94998598  .00000409  00000+0  19861-3 0  9993
2 27848  98.6808  72.6171 0010137 144.0340 216.1522 14.23556668176405
CUBESAT XI-V            
1 28895U 05043F   26063.41486978  .00003252  00000+0  52204-3 0  9995
2 28895  98.2818 216.9395 0014429 174.0246 186.1135 14.72292579 86332
CUTE-1.7+APD II (CO-65) 
1 32785U 08021C   26063.87073449  .00009676  00000+0  62713-3 0  9994
2 32785  97.8203  43.2559 0010226  34.2666 325.9220 15.08290642969466
CANX-2                  
1 32790U 08021H   26063.71985005  .00007176  00000+0  51294-3 0  9998
2 32790  97.8561  41.5881 0012090  45.6252 314.5962 15.04732515969098
SEEDS II (CO-66)        
1 32791U 08021J   26063.55452727  .00027773  00000+0  99192-3 0  9995
2 32791  97.7508  56.7719 0002344  16.0958 344.0355 15.28814513971286
SWISSCUBE               
1 35932U 09051B   26063.68753514  .00001747  00000+0  35639-3 0  9990
2 35932  98.4103 329.7416 0006726 167.7052 192.4314 14.62243369873888
BEESAT-1                
1 35933U 09051C   26063.30148043  .00001553  00000+0  32294-3 0  9994
2 35933  98.4035 329.1997 0004935 179.8045 180.3159 14.61518970873860
ITUPSAT1                
1 35935U 09051E   26063.68070088  .00001348  00000+0  28929-3 0  9992
2 35935  98.4121 328.8845 0006918 194.4211 165.6792 14.60255563873489
TISAT 1                 
1 36799U 10035E   26063.31978079  .00035413  00000+0  13216-2 0  9994
2 36799  98.0651   0.9751 0000464 171.6015 188.5230 15.27318548851670
AEROCUBE 4.5A           
1 38767U 12048K   26063.34375215  .00122995  00000+0  13835-2 0  9992
2 38767  64.6383  38.6554 0041655 213.7694 146.0797 15.60877446356159
STRAND-1                
1 39090U 13009E   26063.48172039  .00000561  00000+0  20324-3 0  9990
2 39090  98.3882 246.3029 0008692 176.9706 183.1535 14.37089808682020
BRITE-AUSTRIA           
1 39091U 13009F   26063.45016346  .00000360  00000+0  13733-3 0  9999
2 39091  98.3950 245.4888 0010049 186.6674 173.4381 14.36492679682014
NEE-01 PEGASO           
1 39151U 13018B   26063.33880468  .00006434  00000+0  62273-3 0  9998
2 39151  98.1040 204.1687 0013634 145.6805 214.5297 14.93043968695059
POPACS 2                
1 39269U 13055E   26063.53201541  .00034793  00000+0  60813-3 0  9997
2 39269  80.9889 263.7071 0431725 169.3045 191.7734 14.87487546647631
POPACS 3                
1 39270U 13055F   26062.76175911  .00019038  00000+0  45830-3 0  9991
2 39270  81.0063 343.3222 0561427  30.7059 332.5744 14.53745697623223
