[{"OBJECT_NAME":"CUTE-1 (CO-55)","OBJECT_ID":"2003-031E","EPOCH":"2026-03-04T12:08:12.701184","MEAN_MOTION":14.24261171,"ECCENTRICITY":0.0010519,"INCLINATION":98.6779,"RA_OF_ASC_NODE":73.3688,"ARG_OF_PERICENTER":125.9821,"MEAN_ANOMALY":234.2335,"EPHEMERIS_TYPE":0,"CLASSIFICATION_TYPE":"U","NORAD_CAT_ID":27844,"ELEMENT_SET_NO":999,"REV_AT_EPOCH":17677,"BSTAR":0.00022228,"MEAN_MOTION_DOT":4.69e-6,"MEAN_MOTION_DDOT":0},{"OBJECT_NAME":"CUBESAT XI-IV (CO-57)","OBJECT_ID":"2003-031J","EPOCH":"2026-03-03T22:47:58.788672","MEAN_MOTION":14.23556668,"ECCENTRICITY":0.0010137,"INCLINATION":98.6808,"RA_OF_ASC_NODE":72.6171,"ARG_OF_PERICENTER":144.034,"MEAN_ANOMALY":216.1522,"EPHEMERIS_TYPE":0,"CLASSIFICATION_TYPE":"U","NORAD_CAT_ID":27848,"ELEMENT_SET_NO":999,"REV_AT_EPOCH":17640,"BSTAR":0.00019861,"MEAN_MOTION_DOT":4.09e-6,"MEAN_MOTION_DDOT":0},{"OBJECT_NAME":"CUBESAT XI-V","OBJECT_ID":"2005-043F","EPOCH":"2026-03-04T09:57:24.748992","MEAN_MOTION":14.72292579,"ECCENTRICITY":0.00144296,"INCLINATION":98.2818,"RA_OF_ASC_NODE":216.9395,"ARG_OF_PERICENTER":174.0246,"MEAN_ANOMALY":186.1135,"EPHEMERIS_TYPE":0,"CLASSIFICATION_TYPE":"U","NORAD_CAT_ID":28895,"ELEMENT_SET_NO":999,"REV_AT_EPOCH":8633,"BSTAR":0.00052204357,"MEAN_MOTION_DOT":3.252e-5,"MEAN_MOTION_DDOT":0},{"OBJECT_NAME":"CUTE-1.7+APD II (CO-65)","OBJECT_ID":"2008-021C","EPOCH":"2026-03-04T20:53:51.459936","MEAN_MOTION":15.08290642,"ECCENTRICITY":0.0010226,"INCLINATION":97.8203,"RA_OF_ASC_NODE":43.2559,"ARG_OF_PERICENTER":34.2666,"MEAN_ANOMALY":325.922,"EPHEMERIS_TYPE":0,"CLASSIFICATION_TYPE":"U","NORAD_CAT_ID":32785,"ELEMENT_SET_NO":999,"REV_AT_EPOCH":96946,"BSTAR":0.00062713,"MEAN_MOTION_DOT":9.676e-5,"MEAN_MOTION_DDOT":0},{"OBJECT_NAME":"CANX-2","OBJECT_ID":"2008-021H","EPOCH":"2026-03-04T17:16:35.044320","MEAN_MOTION":15.04732515,"ECCENTRICITY":0.001209,"INCLINATION":97.8561,"RA_OF_ASC_NODE":41.5881,"ARG_OF_PERICENTER":45.6252,"MEAN_ANOMALY":314.5962,"EPHEMERIS_TYPE":0,"CLASSIFICATION_TYPE":"U","NORAD_CAT_ID":32790,"ELEMENT_SET_NO":999,"REV_AT_EPOCH":96909,"BSTAR":0.00051294,"MEAN_MOTION_DOT":7.176e-5,"MEAN_MOTION_DDOT":0},{"OBJECT_NAME":"SEEDS II (CO-66)","OBJECT_ID":"2008-021J","EPOCH":"2026-03-04T13:18:31.156128","MEAN_MOTION":15.28814513,"ECCENTRICITY":0.0002344,"INCLINATION":97.7508,"RA_OF_ASC_NODE":56.7719,"ARG_OF_PERICENTER":16.0958,"MEAN_ANOMALY":344.0355,"EPHEMERIS_TYPE":0,"CLASSIFICATION_TYPE":"U","NORAD_CAT_ID":32791,"ELEMENT_SET_NO":999,"REV_AT_EPOCH":97128,"BSTAR":0.00099192,"MEAN_MOTION_DOT":0.00027773,"MEAN_MOTION_DDOT":0},{"OBJECT_NAME":"SWISSCUBE","OBJECT_ID":"2009-051B","EPOCH":"2026-03-04T16:30:03.036096","MEAN_MOTION":14.62243369,"ECCENTRICITY":0.0006726,"INCLINATION":98.4103,"RA_OF_ASC_NODE":329.7416,"ARG_OF_PERICENTER":167.7052,"MEAN_ANOMALY":192.4314,"EPHEMERIS_TYPE":0,"CLASSIFICATION_TYPE":"U","NORAD_CAT_ID":35932,"ELEMENT_SET_NO":999,"REV_AT_EPOCH":87388,"BSTAR":0.00035639,"MEAN_MOTION_DOT":1.747e-5,"MEAN_MOTION_DDOT":0},{"OBJECT_NAME":"BEESAT-1","OBJECT_ID":"2009-051C","EPOCH":"2026-03-04T07:14:07.909152","MEAN_MOTION":14.6151897,"ECCENTRICITY":0.00049358,"INCLINATION":98.4035,"RA_OF_ASC_NODE":329.1997,"ARG_OF_PERICENTER":179.8045,"MEAN_ANOMALY":180.3159,"EPHEMERIS_TYPE":0,"CLASSIFICATION_TYPE":"U","NORAD_CAT_ID":35933,"ELEMENT_SET_NO":999,"REV_AT_EPOCH":87386,"BSTAR":0.00032294291,"MEAN_MOTION_DOT":1.553e-5,"MEAN_MOTION_DDOT":0},{"OBJECT_NAME":"ITUPSAT1","OBJECT_ID":"2009-051E","EPOCH":"2026-03-04T16:20:12.556032","MEAN_MOTION":14.60255563,"ECCENTRICITY":0.0006918,"INCLINATION":98.4121,"RA_OF_ASC_NODE":328.8845,"ARG_OF_PERICENTER":194.4211,"MEAN_ANOMALY":165.6792,"EPHEMERIS_TYPE":0,"CLASSIFICATION_TYPE":"U","NORAD_CAT_ID":35935,"ELEMENT_SET_NO":999,"REV_AT_EPOCH":87348,"BSTAR":0.00028929,"MEAN_MOTION_DOT":1.348e-5,"MEAN_MOTION_DDOT":0},{"OBJECT_NAME":"TISAT 1","OBJECT_ID":"2010-035E","EPOCH":"2026-03-04T07:40:29.060256","MEAN_MOTION":15.27318548,"ECCENTRICITY":4.647e-5,"INCLINATION":98.0651,"RA_OF_ASC_NODE":0.9751,"ARG_OF_PERICENTER":171.6015,"MEAN_ANOMALY":188.523,"EPHEMERIS_TYPE":0,"CLASSIFICATION_TYPE":"U","NORAD_CAT_ID":36799,"ELEMENT_SET_NO":999,"REV_AT_EPOCH":85167,"BSTAR":0.0013215596,"MEAN_MOTION_DOT":0.00035413,"MEAN_MOTION_DDOT":0},{"OBJECT_NAME":"AEROCUBE 4.5A","OBJECT_ID":"2012-048K","EPOCH":"2026-03-04T08:15:00.185760","MEAN_MOTION":15.60877446,"ECCENTRICITY":0.00416556,"INCLINATION":64.6383,"RA_OF_ASC_NODE":38.6554,"ARG_OF_PERICENTER":213.7694,"MEAN_ANOMALY":146.0797,"EPHEMERIS_TYPE":0,"CLASSIFICATION_TYPE":"U","NORAD_CAT_ID":38767,"ELEMENT_SET_NO":999,"REV_AT_EPOCH":35615,"BSTAR":0.0013834751,"MEAN_MOTION_DOT":0.00122995,"MEAN_MOTION_DDOT":0},{"OBJECT_NAME":"STRAND-1","OBJECT_ID":"2013-009E","EPOCH":"2026-03-04T11:33:40.641696","MEAN_MOTION":14.37089808,"ECCENTRICITY":0.00086929,"INCLINATION":98.3882,"RA_OF_ASC_NODE":246.3029,"ARG_OF_PERICENTER":176.9706,"MEAN_ANOMALY":183.1535,"EPHEMERIS_TYPE":0,"CLASSIFICATION_TYPE":"U","NORAD_CAT_ID":39090,"ELEMENT_SET_NO":999,"REV_AT_EPOCH":68202,"BSTAR":0.00020323985,"MEAN_MOTION_DOT":5.61e-6,"MEAN_MOTION_DDOT":0},{"OBJECT_NAME":"BRITE-AUSTRIA","OBJECT_ID":"2013-009F","EPOCH":"2026-03-04T10:48:14.122944","MEAN_MOTION":14.36492679,"ECCENTRICITY":0.00100496,"INCLINATION":98.395,"RA_OF_ASC_NODE":245.4888,"ARG_OF_PERICENTER":186.6674,"MEAN_ANOMALY":173.4381,"EPHEMERIS_TYPE":0,"CLASSIFICATION_TYPE":"U","NORAD_CAT_ID":39091,"ELEMENT_SET_NO":999,"REV_AT_EPOCH":68201,"BSTAR":0.0001373349,"MEAN_MOTION_DOT":3.6e-6,"MEAN_MOTION_DDOT":0},{"OBJECT_NAME":"NEE-01 PEGASO","OBJECT_ID":"2013-018B","EPOCH":"2026-03-04T08:07:52.724352","MEAN_MOTION":14.93043968,"ECCENTRICITY":0.00136343,"INCLINATION":98.104,"RA_OF_ASC_NODE":204.1687,"ARG_OF_PERICENTER":145.6805,"MEAN_ANOMALY":214.5297,"EPHEMERIS_TYPE":0,"CLASSIFICATION_TYPE":"U","NORAD_CAT_ID":39151,"ELEMENT_SET_NO":999,"REV_AT_EPOCH":69505,"BSTAR":0.00062273462,"MEAN_MOTION_DOT":6.434e-5,"MEAN_MOTION_DDOT":0},{"OBJECT_NAME":"POPACS 2","OBJECT_ID":"2013-055E","EPOCH":"2026-03-04T12:46:06.131424","MEAN_MOTION":14.87487546,"ECCENTRICITY":0.04317254,"INCLINATION":80.9889,"RA_OF_ASC_NODE":263.7071,"ARG_OF_PERICENTER":169.3045,"MEAN_ANOMALY":191.7734,"EPHEMERIS_TYPE":0,"CLASSIFICATION_TYPE":"U","NORAD_CAT_ID":39269,"ELEMENT_SET_NO":999,"REV_AT_EPOCH":64763,"BSTAR":0.00060812605,"MEAN_MOTION_DOT":0.00034793,"MEAN_MOTION_DDOT":0},{"OBJECT_NAME":"POPACS 3","OBJECT_ID":"2013-055F","EPOCH":"2026-03-03T18:16:55.987104","MEAN_MOTION":14.53745697,"ECCENTRICITY":0.05614272,"INCLINATION":81.0063,"RA_OF_ASC_NODE":343.3222,"ARG_OF_PERICENTER":30.7059,"MEAN_ANOMALY":332.5744,"EPHEMERIS_TYPE":0,"CLASSIFICATION_TYPE":"U","NORAD_CAT_ID":39270,"ELEMENT_SET_NO":999,"REV_AT_EPOCH":62322,"BSTAR":0.00045829762,"MEAN_MOTION_DOT":0.00019038,"MEAN_MOTION_DDOT":0}]
